RS27S UTMN-2
1 57203U 23091AP  26161.59439210  .00011977  00000+0  39090-3 0  9999
2 57203  97.5093 228.7247 0009467 103.3750 256.8548 15.31888060163535
METEOR-M2-4
1 59051U 24039A   26161.64162198  .00000002  00000+0  20439-4 0  9994
2 59051  98.7008 121.0220 0006896 179.6081 180.5103 14.22428895118332
SONATE-2
1 59112U 24043Q   26161.33229084  .00039539  00000+0  52300-3 0  9999
2 59112  97.5521 311.3113 0006720 218.8804 141.1969 15.58207311126821
GRBBeta
1 60237U 24128C   26161.58313076  .00003187  00000+0  22462-3 0  9991
2 60237  61.9898 239.4357 0041546 133.2177 227.2398 15.06595991105276
Curium One
1 60242U 24128H   26161.55888519  .00006255  00000+0  36373-3 0  9998
2 60242  61.9783 229.2493 0040844 129.0735 231.4006 15.12427593105458
ROBUSTA-3A
1 60243U 24128J   26161.51999058  .00005875  00000+0  35005-3 0  9994
2 60243  61.9859 231.8200 0042078 126.8629 233.6336 15.11597596105412
CatSat
1 60246U 24125J   26161.58966991  .00047317  00000+0  62631-3 0  9993
2 60246  97.2101  14.0090 0022133 202.7897 157.2379 15.57876707106363
ARTIC WX
1 60543U 24149CD  26161.43721946  .00000658  00000+0  74139-4 0  9996
2 60543  97.6802 232.0958 0003435 116.7059 243.4511 14.89795342 98295
ARCTICSAT 1
1 61762U 24199AD  26161.52165523  .01204176  10017-2  10263-2 0  9998
2 61762  97.2858  45.3165 0010294 204.0714 156.0092 16.13658022137054
HYPERVIEW-1G (RS66S)
1 61772U 24199AP  26161.58203978  .00069962  00000+0  48810-3 0  9991
2 61772  97.2897  40.9753 0002263 260.7408  99.3601 15.74115316133633
AO-123
1 61781U 24199AY  26161.58363089  .00006947  00000+0  20268-3 0  9992
2 61781  97.3016  30.3144 0012967 339.9674  20.1060 15.35580188132911
SAMSAT-IONOSPHERE
1 61784U 24199BB  26161.63399816  .00040383  00000+0  55759-3 0  9993
2 61784  97.2963  37.3697 0006152 311.2492  48.8233 15.57052607136540
LASARsat
1 62391U 24247Q   26160.80476977  .00035312  00000+0  71316-3 0  9997
2 62391  44.9750 303.6854 0008391 290.3514  69.6474 15.45910909 82173
CROCUBE
1 62394U 24247T   26161.65050469  .00035404  00000+0  66998-3 0  9990
2 62394  44.9722 296.3748 0008240 298.7103  61.2959 15.47795780 82338
JINJUSat 1B
1 63210U 25052A   26161.22872900  .00015323  00000+0  47824-3 0  9993
2 63210  97.4018  57.9751 0005387 105.8376 254.3461 15.33285473 69034
NUSHSAT 1
1 63211U 25052B   26161.60928317  .00018619  00000+0  53753-3 0  9999
2 63211  97.3989  58.8993 0005194 106.4104 253.7711 15.35711947 69135
TEVEL2-4
1 63213U 25052D   26160.68297184  .00017103  00000+0  51594-3 0  9997
2 63213  97.3918  57.0647 0004528 116.3023 243.8685 15.34347478 68969
TEVEL2-5
1 63214U 25052E   26161.22442351  .00017598  00000+0  53329-3 0  9993
2 63214  97.3913  57.5550 0004507 117.7852 242.3848 15.34197759 69045
TEVEL2-6
1 63215U 25052F   26161.62793760  .00015829  00000+0  48042-3 0  9992
2 63215  97.3920  57.9437 0004502 117.4748 242.6953 15.34172180 69106
TEVEL2-1
1 63217U 25052H   26161.45896437  .00016982  00000+0  52380-3 0  9991
2 63217  97.3892  57.4069 0004352 126.5292 233.6352 15.33643468 69069
TEVEL2-3
1 63218U 25052J   26161.45384750  .00014599  00000+0  45005-3 0  9990
2 63218  97.3880  57.4231 0004594 125.5277 234.6394 15.33693057 69064
TEVEL2-2
1 63219U 25052K   26161.26357561  .00017570  00000+0  54175-3 0  9990
2 63219  97.3890  57.2137 0004337 128.0186 232.1449 15.33646958 69030
TEVEL2-9
1 63237U 25052AD  26161.62407326  .00013811  00000+0  45314-3 0  9994
2 63237  97.3953  56.9633 0007199 149.0429 211.1238 15.31695500 69026
TEVEL2-7
1 63238U 25052AE  26161.59839001  .00014018  00000+0  46406-3 0  9993
2 63238  97.3954  56.8565 0007293 149.8573 210.3089 15.31404254 69012
TEVEL2-8
1 63239U 25052AF  26160.69177181  .00014112  00000+0  46777-3 0  9994
2 63239  97.3952  55.9294 0007169 153.0566 207.1049 15.31361975 68876
PARUS-T2
1 64560U 25135AJ  26161.58324857  .00004038  00000+0  36918-3 0  9999
2 64560  97.7719 276.3197 0000588 104.6479 255.4807 14.95565526 52927
Geoscan-1
1 64880U 25155E   26161.58140291  .00009901  00000+0  33683-3 0  9994
2 64880  97.4544 130.2504 0007404 184.2504 175.8675 15.30612449 79768
239Alferov
1 64881U 25155F   26161.62568154  .00012725  00000+0  40415-3 0  9991
2 64881  97.4545 130.8344 0007110 180.4679 179.6558 15.32764171 79802
Geoscan-2
1 64890U 25155Q   26161.57625650  .00009804  00000+0  33079-3 0  9992
2 64890  97.4543 130.3950 0007252 170.0561 190.0824 15.30884188 79778
Geoscan-4
1 64892U 25155S   26161.60091118  .00013142  00000+0  41131-3 0  9992
2 64892  97.4541 130.9909 0005847 184.0070 176.1127 15.33232343 79815
Geoscan-3
1 64893U 25155T   26161.61008886  .00016729  00000+0  49160-3 0  9998
2 64893  97.4530 131.4111 0005744 181.5913 178.5312 15.35175774 79840
SPIRONE
1 66657U 25274H   26161.62229291  .00002430  00000+0  23579-3 0  9996
2 66657  97.7480  91.0073 0013255  42.6929 317.5319 14.93518969 29246
K-HERO
1 66660U 25274L   26161.56174435  .00002152  00000+0  20710-3 0  9997
2 66660  97.7488  91.1038 0015252  46.1078 314.1399 14.93938853 29242
SNUGLITE-III DURI
1 66661U 25274M   26161.28179422  .00001895  00000+0  18282-3 0  9992
2 66661  97.7488  90.8481 0015779  47.2551 312.9994 14.93977611 29201
GALAPAGOS
1 67279U 25313AH  26161.17591890  .00006328  00000+0  27342-3 0  9990
2 67279  97.3923 235.8965 0014660  34.7243 325.4947 15.22738316 24888
Lobachevsky
1 67282U 25313AL  26161.18581424  .00004662  00000+0  20111-3 0  9993
2 67282  97.3929 236.0248 0011193  32.2578 327.9342 15.22969451 24890
SAKHACUBE-CHOLBON
1 67290U 25313AU  26161.46671774  .00008932  00000+0  36274-3 0  9992
2 67290  97.3935 236.5859 0009544  29.0173 331.1593 15.24770475 24951
RS95S (QMR-KWT-2)
1 67291U 25313AV  26161.46105327  .00012650  00000+0  49210-3 0  9995
2 67291  97.3933 236.7419 0008932  27.8239 332.3475 15.26119780 24964
KNACKSAT-2
1 67683U 98067XZ  26161.62292766  .00042223  00000+0  52712-3 0  9998
2 67683  51.6305 327.4826 0009974 186.2024 173.8847 15.59374405 19254
Ten-Koh2
1 68261U 25241B   26160.80192219  .00005889  00000+0  25467-3 0  9990
2 68261  51.6684 354.7738 0006373 120.8887 239.2718 15.23816074 13783
JACK-002
1 68417U 26067B   26160.85103302  .00006398  00000+0  30626-3 0  9999
2 68417  97.4559 119.5327 0001038  19.8110 340.3165 15.19303687 10834
DISCO 2
1 68431U 26067R   26161.59524528  .00007017  00000+0  33875-3 0  9992
2 68431  97.4593 120.2563 0003436  54.9349 305.2207 15.18972665 10943
HADES-SA (SpinnyONE)
1 68446U 26067AG  26160.84355241  .00017672  00000+0  84999-3 0  9990
2 68446  97.4393 119.2504 0009868 101.1139 259.1205 15.18811421 10810
PARUS-6U1
1 68456U 26067AS  26161.33062022  .00004888  00000+0  24741-3 0  9992
2 68456  97.4544 119.7998 0007650  89.4453 270.7657 15.17444777 10898
SAL-E
1 68458U 26067AU  26161.32707985  .00006245  00000+0  31322-3 0  9999
2 68458  97.4466 119.7368 0008031  96.5675 263.6473 15.17658973 10895
FSI-SAT 2
1 68792U 26088A   26160.91453648  .00003818  00000+0  25998-3 0  9996
2 68792  97.5046 310.3575 0015575 129.6269 230.6336 15.06772756  7193
OrigamiSat 2
1 68795U 26088D   26160.66733383  .00003134  00000+0  20404-3 0  9996
2 68795  97.5062 310.2317 0016773 104.9380 255.3708 15.08562004  7167
ARICA 2
1 68796U 26088E   26161.46138896  .00003465  00000+0  22623-3 0  9996
2 68796  97.5050 311.0013 0017254 101.3009 259.0160 15.08373220  7287
WASEDA-SAT-ZERO-II
1 68797U 26088F   26161.65700614  .00004945  00000+0  31944-3 0  9991
2 68797  97.5046 311.1993 0017009 100.6721 259.6424 15.08566921  7317
MANGARO-II-Piscus
1 68798U 26088G   26161.31651488  .00003342  00000+0  21598-3 0  9993
2 68798  97.5054 310.8929 0020504 104.3871 255.9636 15.08732383  7268
Delfi-N3xt
1 39428U 13066N   26161.28420854  .00004099  00000-0  36085-3 0  9998
2 39428  97.8343  81.6026 0073030 229.0267 130.4621 14.95017787673592
IO-86
1 40931U          25360.30710720  .00000000  00000-0  12800-3 0    00
2 40931   6.0006 332.5373 0012733 338.8432   8.1437 14.79075515    01
LILIUM-4
1 71922C 26067AC  26089.50133053 -.00014632  00000 0 -74472-3 0    04
2 71922  97.4497  49.1617 0004341   5.9603 355.7042 15.16896692    16
TRANSIT 5B-5
1 00965U 64083D   26140.22132175  .00000058  00000-0  68520-4 0  9995
2 00965  90.0785 202.8139 0041495   2.6876  57.4259 13.57009955 39826
PARUS-T1
1 98707U 25009N   25063.20000000  .00000000  00000-0  00000-0 0    08
2 98707  97.4430 144.9801 0003811 149.1702 136.3402 15.16239457    06
T.MicroSat-1
1 98515U 25276Y   25347.12519372 +.00009703 +00000+0 +47621-3 0 00218
2 98515  97.4377  58.8963 0002080  99.7173 260.4296 15.18293117002180
ARICA-2
1 98329U 27001A   26113.71443610  .00000000  00000-0  29916-3 0    03
2 98329  97.5133 264.2063 0010953 206.3608 281.8662 15.08387874    01
CORIOLIS
1 27640U 03001A   26162.91229970  .00000090  00000+0  63004-4 0  9994
2 27640  98.7125 169.8776 0013115 224.8257 135.1861 14.19943366213476
